[{"OBJECT_NAME":"STARLINK-4701","OBJECT_ID":"2022-107AD","EPOCH":"2026-03-09T21:18:52.676352","MEAN_MOTION":15.08836917,"ECCENTRICITY":0.0001331,"INCLINATION":53.2166,"RA_OF_ASC_NODE":253.2259,"ARG_OF_PERICENTER":95.4536,"MEAN_ANOMALY":264.6608,"EPHEMERIS_TYPE":0,"CLASSIFICATION_TYPE":"U","NORAD_CAT_ID":53727,"ELEMENT_SET_NO":999,"REV_AT_EPOCH":19458,"BSTAR":-1.0475413e-5,"MEAN_MOTION_DOT":-4.55e-6,"MEAN_MOTION_DDOT":0},{"OBJECT_NAME":"OBJECT R","OBJECT_ID":"2021-022R","EPOCH":"2026-03-09T22:54:37.456416","MEAN_MOTION":15.08912229,"ECCENTRICITY":0.00182027,"INCLINATION":97.3728,"RA_OF_ASC_NODE":308.5333,"ARG_OF_PERICENTER":149.1845,"MEAN_ANOMALY":211.0456,"EPHEMERIS_TYPE":0,"CLASSIFICATION_TYPE":"U","NORAD_CAT_ID":47947,"ELEMENT_SET_NO":999,"REV_AT_EPOCH":27304,"BSTAR":2.1057411e-5,"MEAN_MOTION_DOT":2.72e-6,"MEAN_MOTION_DDOT":0}]
